GAOFEN-3                
1 41727U 16049A   26159.48109784  .00000192  00000+0  71387-4 0  9996
2 41727  98.4016 167.3988 0001219  98.2057 261.9271 14.42214990517396
SKYSAT-C4               
1 41771U 16058B   26159.02634496  .00017080  00000+0  32478-3 0  9999
2 41771  96.9185 181.1836 0000834  93.5442 266.5905 15.48303074544056
SKYSAT-C5               
1 41772U 16058C   26159.36522076  .00006800  00000+0  20672-3 0  9998
2 41772  97.0478 200.3996 0002041   4.8894 355.2369 15.34343128542397
SKYSAT-C2               
1 41773U 16058D   26159.49861008  .00011893  00000+0  28188-3 0  9992
2 41773  97.0173 181.9219 0005114  89.0925 271.0908 15.41872579543712
SKYSAT-C3               
1 41774U 16058E   26159.05430529  .00025423  00000+0  42109-3 0  9998
2 41774  96.9014 190.2558 0001935  81.0427 279.1046 15.52149605544699
ALSAT-1B                
1 41785U 16059C   26159.47288831  .00000747  00000+0  12579-3 0  9994
2 41785  97.7755 168.6129 0007725 253.5744 106.4615 14.72269755519298
PATHFINDER 1            
1 41787U 16059E   26159.47804294  .00000605  00000+0  11401-3 0  9999
2 41787  97.8166 159.1473 0027217 232.2693 127.6045 14.67653474518435
SCATSAT 1               
1 41790U 16059H   26159.42128492  .00001094  00000+0  15043-3 0  9996
2 41790  98.1194 223.0969 0053276 276.4914  83.0232 14.79507738100293
GOKTURK 1A              
1 41875U 16073A   26159.55841362  .00000398  00000+0  87278-4 0  9994
2 41875  98.1256  54.3676 0001461  78.5505 281.5860 14.62768605507569
RESOURCESAT-2A          
1 41877U 16074A   26159.48417105  .00000042  00000+0  39080-4 0  9997
2 41877  98.7521 233.0595 0003344  99.6299 260.5256 14.21613356493066
CARTOSAT-2D             
1 41948U 17008A   26159.46460924  .00003818  00000+0  18425-3 0  9992
2 41948  97.4108 218.9330 0003532 272.2400  87.8431 15.19267676516253
SENTINEL-2B             
1 42063U 17013A   26159.46622226  .00000072  00000+0  43949-4 0  9991
2 42063  98.5686 234.3637 0001217  85.6679 274.4643 14.30814660483399
CARTOSAT-2E             
1 42767U 17036C   26159.48220488  .00004444  00000+0  21402-3 0  9999
2 42767  97.4277 219.4278 0003138 358.9105   1.2122 15.19257360496829
FORMOSAT-5              
1 42920U 17049A   26159.50143897  .00000168  00000+0  53632-4 0  9995
2 42920  98.2253 235.0040 0012665 108.2732 251.9843 14.50895723465411
SENTINEL-5P             
1 42969U 17064A   26159.46161289  .00000057  00000+0  48070-4 0  9992
2 42969  98.7923 101.6551 0000999  81.7300 278.3989 14.19517563448324
SKYSAT-C11              
1 42987U 17068A   26159.38477194  .00024707  00000+0  33779-3 0  9999
2 42987  97.4342 307.8369 0001049  86.9005 273.2370 15.57436191481873
SKYSAT-C10              
1 42988U 17068B   26159.35897691  .00007553  00000+0  22853-3 0  9996
2 42988  97.4494 296.1221 0001252  90.2410 269.8976 15.34488036481001
SKYSAT-C9               
1 42989U 17068C   26159.34546499  .00011298  00000+0  27256-3 0  9996
2 42989  97.4416 296.9593 0008959 161.4468 198.7107 15.41341963481394
SKYSAT-C8               
1 42990U 17068D   26159.34368019  .00008968  00000+0  25163-3 0  9993
2 42990  97.4511 295.8729 0001570  98.2580 261.8842 15.36801802480951
SKYSAT-C7               
1 42991U 17068E   26159.33700235  .00009468  00000+0  26579-3 0  9991
2 42991  97.4524 296.8554 0006983 132.6070 227.5764 15.36749191481015
SKYSAT-C6               
1 42992U 17068F   26159.34133034  .00008518  00000+0  26086-3 0  9998
2 42992  97.4557 296.8615 0003929 160.7220 199.4172 15.34056714480969
CARTOSAT-2F             
1 43111U 18004A   26159.44816360  .00005190  00000+0  24903-3 0  9993
2 43111  97.4787 219.1683 0000042 272.9756  87.1473 15.19309472466005
GAOFEN-1 02             
1 43259U 18031A   26159.48831464  .00001115  00000+0  16756-3 0  9992
2 43259  98.0525 222.0394 0004341  52.8312 307.3294 14.76471593441418
GAOFEN-1 03             
1 43260U 18031B   26159.53426318  .00000744  00000+0  11440-3 0  9990
2 43260  98.0525 221.9445 0003830  96.0977 264.0669 14.76457040441410
GAOFEN-1 04             
1 43262U 18031D   26159.50998638  .00000489  00000+0  77681-4 0  9994
2 43262  98.0527 222.1099 0002229  90.2251 269.9214 14.76466717441404
SENTINEL-3B             
1 43437U 18039A   26159.42346793  .00000106  00000+0  61797-4 0  9993
2 43437  98.6249 227.0813 0000858  77.6307 282.4969 14.26739340422877
GAOFEN-5 01             
1 43461U 18043A   26159.49856998  .00000384  00000+0  89161-4 0  9998
2 43461  98.4565 130.9026 0003022  99.1189 261.0353 14.60599782430426
GAOFEN-6                
1 43484U 18048A   26159.53282917  .00000575  00000+0  89332-4 0  9999
2 43484  97.7758 222.5344 0011353 196.6558 163.4281 14.76622750432119
GAOFEN-11 01            
1 43585U 18063A   26159.48684757  .00018497  00000+0  27659-3 0  9995
2 43585  97.1292 226.3928 0004186  28.0376 332.1103 15.55043563438997
ICESAT-2                
1 43613U 18070A   26159.44625632  .00008813  00000+0  32006-3 0  9991
2 43613  92.0067 288.6189 0005248 119.0096 241.1679 15.28260498431126
HYSIS                   
1 43719U 18096A   26159.48214934  .00001420  00000+0  20075-3 0  9999
2 43719  97.9837 226.2982 0001671 111.4980 248.6409 14.78679310406132
