OBJECT_NAME,OBJECT_ID,EPOCH,MEAN_MOTION,ECCENTRICITY,INCLINATION,RA_OF_ASC_NODE,ARG_OF_PERICENTER,MEAN_ANOMALY,EPHEMERIS_TYPE,CLASSIFICATION_TYPE,NORAD_CAT_ID,ELEMENT_SET_NO,REV_AT_EPOCH,BSTAR,MEAN_MOTION_DOT,MEAN_MOTION_DDOT
GAOFEN-3,2016-049A,2026-06-08T11:32:46.853376,14.42214990,.0001219,98.4016,167.3988,98.2057,261.9271,0,U,41727,999,51739,.71387E-4,.192E-5,0
SKYSAT-C4,2016-058B,2026-06-08T00:37:56.204544,15.48303074,.00008346,96.9185,181.1836,93.5442,266.5905,0,U,41771,999,54405,.32477622E-3,.1708E-3,0
SKYSAT-C5,2016-058C,2026-06-08T08:45:55.073664,15.34343128,.0002041,97.0478,200.3996,4.8894,355.2369,0,U,41772,999,54239,.20672E-3,.68E-4,0
SKYSAT-C2,2016-058D,2026-06-08T11:57:59.910912,15.41872579,.0005114,97.0173,181.9219,89.0925,271.0908,0,U,41773,999,54371,.28188E-3,.11893E-3,0
SKYSAT-C3,2016-058E,2026-06-08T01:18:11.977056,15.52149605,.00019356,96.9014,190.2558,81.0427,279.1046,0,U,41774,999,54469,.42109483E-3,.25423E-3,0
ALSAT-1B,2016-059C,2026-06-08T11:20:57.549984,14.72269755,.0007725,97.7755,168.6129,253.5744,106.4615,0,U,41785,999,51929,.12579E-3,.747E-5,0
PATHFINDER 1,2016-059E,2026-06-08T11:28:22.910016,14.67653474,.0027217,97.8166,159.1473,232.2693,127.6045,0,U,41787,999,51843,.11401E-3,.605E-5,0
SCATSAT 1,2016-059H,2026-06-08T10:06:39.017088,14.79507738,.0053276,98.1194,223.0969,276.4914,83.0232,0,U,41790,999,10029,.15043E-3,.1094E-4,0
GOKTURK 1A,2016-073A,2026-06-08T13:24:06.936768,14.62768605,.0001461,98.1256,54.3676,78.5505,281.5860,0,U,41875,999,50756,.87278E-4,.398E-5,0
RESOURCESAT-2A,2016-074A,2026-06-08T11:37:12.378720,14.21613356,.0003344,98.7521,233.0595,99.6299,260.5256,0,U,41877,999,49306,.3908E-4,.42E-6,0
CARTOSAT-2D,2017-008A,2026-06-08T11:09:02.238336,15.19267676,.0003532,97.4108,218.9330,272.2400,87.8431,0,U,41948,999,51625,.18425E-3,.3818E-4,0
SENTINEL-2B,2017-013A,2026-06-08T11:11:21.603264,14.30814660,.0001217,98.5686,234.3637,85.6679,274.4643,0,U,42063,999,48339,.43949E-4,.72E-6,0
CARTOSAT-2E,2017-036C,2026-06-08T11:34:22.501632,15.19257360,.0003138,97.4277,219.4278,358.9105,1.2122,0,U,42767,999,49682,.21402E-3,.4444E-4,0
FORMOSAT-5,2017-049A,2026-06-08T12:02:04.327008,14.50895723,.0012665,98.2253,235.0040,108.2732,251.9843,0,U,42920,999,46541,.53632E-4,.168E-5,0
SENTINEL-5P,2017-064A,2026-06-08T11:04:43.353696,14.19517563,.0000999,98.7923,101.6551,81.7300,278.3989,0,U,42969,999,44832,.4807E-4,.57E-6,0
SKYSAT-C11,2017-068A,2026-06-08T09:14:04.295616,15.57436191,.0001049,97.4342,307.8369,86.9005,273.2370,0,U,42987,999,48187,.33779E-3,.24707E-3,0
SKYSAT-C10,2017-068B,2026-06-08T08:36:55.605024,15.34488036,.0001252,97.4494,296.1221,90.2410,269.8976,0,U,42988,999,48100,.22853E-3,.7553E-4,0
SKYSAT-C9,2017-068C,2026-06-08T08:17:28.175136,15.41341963,.0008959,97.4416,296.9593,161.4468,198.7107,0,U,42989,999,48139,.27256E-3,.11298E-3,0
SKYSAT-C8,2017-068D,2026-06-08T08:14:53.968416,15.36801802,.000157,97.4511,295.8729,98.2580,261.8842,0,U,42990,999,48095,.25163E-3,.8968E-4,0
SKYSAT-C7,2017-068E,2026-06-08T08:05:17.003040,15.36749191,.0006983,97.4524,296.8554,132.6070,227.5764,0,U,42991,999,48101,.26579E-3,.9468E-4,0
SKYSAT-C6,2017-068F,2026-06-08T08:11:30.941376,15.34056714,.0003929,97.4557,296.8615,160.7220,199.4172,0,U,42992,999,48096,.26086E-3,.8518E-4,0
CARTOSAT-2F,2018-004A,2026-06-08T10:45:21.335040,15.19309472,.0000042,97.4787,219.1683,272.9756,87.1473,0,U,43111,999,46600,.24903E-3,.519E-4,0
GAOFEN-1 02,2018-031A,2026-06-08T11:43:10.384896,14.76471593,.0004341,98.0525,222.0394,52.8312,307.3294,0,U,43259,999,44141,.16756E-3,.1115E-4,0
GAOFEN-1 03,2018-031B,2026-06-08T12:49:20.338752,14.76457040,.000383,98.0525,221.9445,96.0977,264.0669,0,U,43260,999,44141,.1144E-3,.744E-5,0
GAOFEN-1 04,2018-031D,2026-06-08T12:14:22.823232,14.76466717,.0002229,98.0527,222.1099,90.2251,269.9214,0,U,43262,999,44140,.77681E-4,.489E-5,0
SENTINEL-3B,2018-039A,2026-06-08T10:09:47.629152,14.26739340,.0000858,98.6249,227.0813,77.6307,282.4969,0,U,43437,999,42287,.61797E-4,.106E-5,0
GAOFEN-5 01,2018-043A,2026-06-08T11:57:56.446272,14.60599782,.0003022,98.4565,130.9026,99.1189,261.0353,0,U,43461,999,43042,.89161E-4,.384E-5,0
GAOFEN-6,2018-048A,2026-06-08T12:47:16.440288,14.76622750,.0011353,97.7758,222.5344,196.6558,163.4281,0,U,43484,999,43211,.89332E-4,.575E-5,0
GAOFEN-11 01,2018-063A,2026-06-08T11:41:03.630048,15.55043563,.0004186,97.1292,226.3928,28.0376,332.1103,0,U,43585,999,43899,.27659E-3,.18497E-3,0
ICESAT-2,2018-070A,2026-06-08T10:42:36.546048,15.28260498,.0005248,92.0067,288.6189,119.0096,241.1679,0,U,43613,999,43112,.32006E-3,.8813E-4,0
HYSIS,2018-096A,2026-06-08T11:34:17.702976,14.78679310,.0001671,97.9837,226.2982,111.4980,248.6409,0,U,43719,999,40613,.20075E-3,.142E-4,0
